{"fetched_at":"2026-07-23T17:55:51.007Z","source":"https://celestrak.org/NORAD/elements/gp.php?NAME=SENTINEL&FORMAT=JSON","constellation":"sentinel-3","records":[{"OBJECT_NAME":"SENTINEL-3A","OBJECT_ID":"2016-011A","EPOCH":"2026-07-23T06:19:08.667264","CLASSIFICATION_TYPE":"U","MEAN_MOTION":14.26735984,"ECCENTRICITY":0.00012899,"INCLINATION":98.6231,"RA_OF_ASC_NODE":271.1252,"ARG_OF_PERICENTER":86.9699,"MEAN_ANOMALY":273.1629,"EPHEMERIS_TYPE":0,"NORAD_CAT_ID":41335,"ELEMENT_SET_NO":999,"REV_AT_EPOCH":54320,"BSTAR":0.000045588443,"MEAN_MOTION_DOT":6.7e-7,"MEAN_MOTION_DDOT":0},{"OBJECT_NAME":"SENTINEL-3B","OBJECT_ID":"2018-039A","EPOCH":"2026-07-23T03:59:30.236352","CLASSIFICATION_TYPE":"U","MEAN_MOTION":14.26738051,"ECCENTRICITY":0.00013055,"INCLINATION":98.6229,"RA_OF_ASC_NODE":271.1788,"ARG_OF_PERICENTER":118.4343,"MEAN_ANOMALY":241.6969,"EPHEMERIS_TYPE":0,"NORAD_CAT_ID":43437,"ELEMENT_SET_NO":999,"REV_AT_EPOCH":42925,"BSTAR":0.00004928206,"MEAN_MOTION_DOT":7.6e-7,"MEAN_MOTION_DDOT":0}]}
